start=new Date('2021-11-25T00:00:00.000Z').valueOf();
sats=[{"TLE_LINE2":"2 47799  53.0552  62.9096 0001085  97.3411 262.7701 15.06399306 40796","PERIOD":"95.592","RA_OF_ASC_NODE":"62.9096","SEMIMAJOR_AXIS":"6925.351","OBJECT_ID":"2021-018N","MEAN_MOTION_DDOT":"0.0000000000000","MEAN_ELEMENT_THEORY":"SGP4","PERIAPSIS":"546.464","OBJECT_NAME":"STARLINK-2380","COUNTRY_CODE":"US","EPOCH":"2021-11-24T09:56:39.372576","ELEMENT_SET_NO":"999","MEAN_MOTION":"15.06399306","SITE":"AFETR","ARG_OF_PERICENTER":"97.3411","TLE_LINE1":"1 47799U 21018N   21328.41434459  .00000929  00000-0  81252-4 0  9990","DECAY_DATE":null,"TIME_SYSTEM":"UTC","REV_AT_EPOCH":"4079","ECCENTRICITY":"0.00010850","RCS_SIZE":"LARGE","LAUNCH_DATE":"2021-03-11","MEAN_MOTION_DOT":"0.00000929","BSTAR":"0.00008125200000","FILE":"3223022","REF_FRAME":"TEME","MEAN_ANOMALY":"262.7701","EPHEMERIS_TYPE":"0","APOAPSIS":"547.967","GP_ID":"190398474","OBJECT_TYPE":"PAYLOAD","CLASSIFICATION_TYPE":"U","INCLINATION":"53.0552","NORAD_CAT_ID":"47799","CENTER_NAME":"EARTH"},{"MEAN_ELEMENT_THEORY":"SGP4","MEAN_MOTION_DDOT":"0.0000000000000","OBJECT_ID":"2021-018P","PERIOD":"95.593","TLE_LINE2":"2 47800  53.0572  62.8008 0001348  83.4901 276.6242 15.06389376 40807","SEMIMAJOR_AXIS":"6925.381","RA_OF_ASC_NODE":"62.8008","ARG_OF_PERICENTER":"83.4901","SITE":"AFETR","MEAN_MOTION":"15.06389376","ELEMENT_SET_NO":"999","PERIAPSIS":"546.313","OBJECT_NAME":"STARLINK-2381","COUNTRY_CODE":"US","EPOCH":"2021-11-24T10:28:30.245952","REV_AT_EPOCH":"4080","TIME_SYSTEM":"UTC","DECAY_DATE":null,"TLE_LINE1":"1 47800U 21018P   21328.43646118 -.00000214  00000-0  44944-5 0  9998","RCS_SIZE":"LARGE","ECCENTRICITY":"0.00013480","FILE":"3223022","REF_FRAME":"TEME","MEAN_ANOMALY":"276.6242","BSTAR":"0.00000449440000","MEAN_MOTION_DOT":"-0.00000214","LAUNCH_DATE":"2021-03-11","OBJECT_TYPE":"PAYLOAD","EPHEMERIS_TYPE":"0","APOAPSIS":"548.180","GP_ID":"190397236","NORAD_CAT_ID":"47800","CENTER_NAME":"EARTH","INCLINATION":"53.0572","CLASSIFICATION_TYPE":"U"},{"LAUNCH_DATE":"2021-03-11","MEAN_MOTION_DOT":"0.00000511","BSTAR":"0.00005319900000","MEAN_ANOMALY":"289.5474","FILE":"3223022","REF_FRAME":"TEME","CLASSIFICATION_TYPE":"U","INCLINATION":"53.0568","NORAD_CAT_ID":"47801","CENTER_NAME":"EARTH","APOAPSIS":"548.099","EPHEMERIS_TYPE":"0","GP_ID":"190397486","OBJECT_TYPE":"PAYLOAD","OBJECT_NAME":"STARLINK-2382","PERIAPSIS":"546.332","EPOCH":"2021-11-24T11:00:58.193568","COUNTRY_CODE":"US","ELEMENT_SET_NO":"999","SITE":"AFETR","MEAN_MOTION":"15.06399261","ARG_OF_PERICENTER":"70.5653","TLE_LINE2":"2 47801  53.0568  67.6945 0001276  70.5653 289.5474 15.06399261 40744","PERIOD":"95.592","RA_OF_ASC_NODE":"67.6945","SEMIMAJOR_AXIS":"6925.351","OBJECT_ID":"2021-018Q","MEAN_MOTION_DDOT":"0.0000000000000","MEAN_ELEMENT_THEORY":"SGP4","ECCENTRICITY":"0.00012760","RCS_SIZE":"LARGE","TLE_LINE1":"1 47801U 21018Q   21328.45900687  .00000511  00000-0  53199-4 0  9995","DECAY_DATE":null,"TIME_SYSTEM":"UTC","REV_AT_EPOCH":"4074"},{"MEAN_MOTION_DDOT":"0.0000000000000","MEAN_ELEMENT_THEORY":"SGP4","RA_OF_ASC_NODE":"86.5904","SEMIMAJOR_AXIS":"6925.391","PERIOD":"95.593","TLE_LINE2":"2 47802  53.0479  86.5904 0004483 124.6321 235.5091 15.06385995 40506","OBJECT_ID":"2021-018R","SITE":"AFETR","MEAN_MOTION":"15.06385995","ARG_OF_PERICENTER":"124.6321","COUNTRY_CODE":"US","EPOCH":"2021-11-24T17:11:14.438976","OBJECT_NAME":"STARLINK-2383","PERIAPSIS":"544.152","ELEMENT_SET_NO":"999","TIME_SYSTEM":"UTC","REV_AT_EPOCH":"4050","TLE_LINE1":"1 47802U 21018R   21328.71613934 -.00000846  00000-0 -37799-4 0  9992","DECAY_DATE":null,"RCS_SIZE":"LARGE","ECCENTRICITY":"0.00044830","BSTAR":"-0.00003779900000","FILE":"3223205","MEAN_ANOMALY":"235.5091","REF_FRAME":"TEME","LAUNCH_DATE":"2021-03-11","MEAN_MOTION_DOT":"-0.00000846","GP_ID":"190425950","EPHEMERIS_TYPE":"0","APOAPSIS":"550.361","OBJECT_TYPE":"PAYLOAD","CENTER_NAME":"EARTH","NORAD_CAT_ID":"47802","CLASSIFICATION_TYPE":"U","INCLINATION":"53.0479"},{"CENTER_NAME":"EARTH","NORAD_CAT_ID":"47803","CLASSIFICATION_TYPE":"U","INCLINATION":"53.0577","GP_ID":"190398975","EPHEMERIS_TYPE":"0","APOAPSIS":"547.972","OBJECT_TYPE":"PAYLOAD","BSTAR":"0.00000220030000","REF_FRAME":"TEME","FILE":"3223022","MEAN_ANOMALY":"276.4221","LAUNCH_DATE":"2021-03-11","MEAN_MOTION_DOT":"-0.00000249","RCS_SIZE":"LARGE","ECCENTRICITY":"0.00010730","TIME_SYSTEM":"UTC","REV_AT_EPOCH":"4080","TLE_LINE1":"1 47803U 21018S   21328.44751829 -.00000249  00000-0  22003-5 0  9998","DECAY_DATE":null,"MEAN_MOTION":"15.06395127","SITE":"AFETR","ARG_OF_PERICENTER":"83.6890","COUNTRY_CODE":"US","EPOCH":"2021-11-24T10:44:25.580256","PERIAPSIS":"546.485","OBJECT_NAME":"STARLINK-2384","ELEMENT_SET_NO":"999","MEAN_MOTION_DDOT":"0.0000000000000","MEAN_ELEMENT_THEORY":"SGP4","RA_OF_ASC_NODE":"62.7566","SEMIMAJOR_AXIS":"6925.363","PERIOD":"95.592","TLE_LINE2":"2 47803  53.0577  62.7566 0001073  83.6890 276.4221 15.06395127 40803","OBJECT_ID":"2021-018S"},{"EPHEMERIS_TYPE":"0","APOAPSIS":"547.989","GP_ID":"190424449","OBJECT_TYPE":"PAYLOAD","INCLINATION":"53.0567","CLASSIFICATION_TYPE":"U","NORAD_CAT_ID":"47804","CENTER_NAME":"EARTH","LAUNCH_DATE":"2021-03-11","MEAN_MOTION_DOT":"-0.00000311","BSTAR":"-0.00000198830000","FILE":"3223205","REF_FRAME":"TEME","MEAN_ANOMALY":"275.8333","TLE_LINE1":"1 47804U 21018T   21328.66129563 -.00000311  00000-0 -19883-5 0  9990","DECAY_DATE":null,"TIME_SYSTEM":"UTC","REV_AT_EPOCH":"4083","ECCENTRICITY":"0.00011290","RCS_SIZE":"LARGE","TLE_LINE2":"2 47804  53.0567  61.7843 0001129  84.2784 275.8333 15.06401988 40834","PERIOD":"95.592","RA_OF_ASC_NODE":"61.7843","SEMIMAJOR_AXIS":"6925.342","OBJECT_ID":"2021-018T","MEAN_MOTION_DDOT":"0.0000000000000","MEAN_ELEMENT_THEORY":"SGP4","PERIAPSIS":"546.426","OBJECT_NAME":"STARLINK-2385","EPOCH":"2021-11-24T15:52:15.942432","COUNTRY_CODE":"US","ELEMENT_SET_NO":"999","MEAN_MOTION":"15.06401988","SITE":"AFETR","ARG_OF_PERICENTER":"84.2784"},{"OBJECT_TYPE":"PAYLOAD","EPHEMERIS_TYPE":"0","APOAPSIS":"548.063","GP_ID":"190397987","NORAD_CAT_ID":"47805","CENTER_NAME":"EARTH","INCLINATION":"53.0555","CLASSIFICATION_TYPE":"U","FILE":"3223022","REF_FRAME":"TEME","MEAN_ANOMALY":"264.5672","BSTAR":"-0.00002258300000","MEAN_MOTION_DOT":"-0.00000618","LAUNCH_DATE":"2021-03-11","REV_AT_EPOCH":"4079","TIME_SYSTEM":"UTC","DECAY_DATE":null,"TLE_LINE1":"1 47805U 21018U   21328.33968472 -.00000618  00000-0 -22583-4 0  9995","RCS_SIZE":"MEDIUM","ECCENTRICITY":"0.00011850","MEAN_ELEMENT_THEORY":"SGP4","MEAN_MOTION_DDOT":"0.0000000000000","OBJECT_ID":"2021-018U","PERIOD":"95.593","TLE_LINE2":"2 47805  53.0555  63.2218 0001185  95.5452 264.5672 15.06390553 40795","RA_OF_ASC_NODE":"63.2218","SEMIMAJOR_AXIS":"6925.378","ARG_OF_PERICENTER":"95.5452","SITE":"AFETR","MEAN_MOTION":"15.06390553","ELEMENT_SET_NO":"999","OBJECT_NAME":"STARLINK-2386","PERIAPSIS":"546.422","COUNTRY_CODE":"US","EPOCH":"2021-11-24T08:09:08.759808"},{"MEAN_MOTION_DDOT":"0.0000000000000","MEAN_ELEMENT_THEORY":"SGP4","TLE_LINE2":"2 47806  53.0569  76.6363 0001220  86.6093 273.5036 15.06399008 40699","PERIOD":"95.592","SEMIMAJOR_AXIS":"6925.352","RA_OF_ASC_NODE":"76.6363","OBJECT_ID":"2021-018V","SITE":"AFETR","MEAN_MOTION":"15.06399008","ARG_OF_PERICENTER":"86.6093","PERIAPSIS":"546.372","OBJECT_NAME":"STARLINK-2387","EPOCH":"2021-11-24T16:44:38.538528","COUNTRY_CODE":"US","ELEMENT_SET_NO":"999","TIME_SYSTEM":"UTC","REV_AT_EPOCH":"4069","TLE_LINE1":"1 47806U 21018V   21328.69766827  .00001460  00000-0  11688-3 0  9992","DECAY_DATE":null,"RCS_SIZE":"LARGE","ECCENTRICITY":"0.00012200","BSTAR":"0.00011688000000","REF_FRAME":"TEME","FILE":"3223205","MEAN_ANOMALY":"273.5036","LAUNCH_DATE":"2021-03-11","MEAN_MOTION_DOT":"0.00001460","EPHEMERIS_TYPE":"0","APOAPSIS":"548.061","GP_ID":"190425451","OBJECT_TYPE":"PAYLOAD","NORAD_CAT_ID":"47806","CENTER_NAME":"EARTH","INCLINATION":"53.0569","CLASSIFICATION_TYPE":"U"},{"EPOCH":"2021-11-24T10:08:35.852352","COUNTRY_CODE":"US","OBJECT_NAME":"STARLINK-2388","PERIAPSIS":"546.258","ELEMENT_SET_NO":"999","SITE":"AFETR","MEAN_MOTION":"15.06391807","ARG_OF_PERICENTER":"84.8362","SEMIMAJOR_AXIS":"6925.374","RA_OF_ASC_NODE":"52.8714","PERIOD":"95.593","TLE_LINE2":"2 47807  53.0517  52.8714 0001416  84.8362 275.2788 15.06391807 40934","OBJECT_ID":"2021-018W","MEAN_MOTION_DDOT":"0.0000000000000","MEAN_ELEMENT_THEORY":"SGP4","ECCENTRICITY":"0.00014160","RCS_SIZE":"LARGE","TLE_LINE1":"1 47807U 21018W   21328.42263718 -.00000469  00000-0 -12570-4 0  9997","DECAY_DATE":null,"TIME_SYSTEM":"UTC","REV_AT_EPOCH":"4093","LAUNCH_DATE":"2021-03-11","MEAN_MOTION_DOT":"-0.00000469","BSTAR":"-0.00001257000000","REF_FRAME":"TEME","FILE":"3223022","MEAN_ANOMALY":"275.2788","CLASSIFICATION_TYPE":"U","INCLINATION":"53.0517","CENTER_NAME":"EARTH","NORAD_CAT_ID":"47807","GP_ID":"190398475","APOAPSIS":"548.219","EPHEMERIS_TYPE":"0","OBJECT_TYPE":"PAYLOAD"},{"ELEMENT_SET_NO":"999","OBJECT_NAME":"STARLINK-2389","PERIAPSIS":"546.282","COUNTRY_CODE":"US","EPOCH":"2021-11-24T09:14:50.478144","ARG_OF_PERICENTER":"85.2315","MEAN_MOTION":"15.06398245","SITE":"AFETR","OBJECT_ID":"2021-018X","PERIOD":"95.592","TLE_LINE2":"2 47808  53.0559  78.0393 0001353  85.2315 274.8828 15.06398245 40648","SEMIMAJOR_AXIS":"6925.354","RA_OF_ASC_NODE":"78.0393","MEAN_ELEMENT_THEORY":"SGP4","MEAN_MOTION_DDOT":"0.0000000000000","ECCENTRICITY":"0.00013530","RCS_SIZE":"LARGE","DECAY_DATE":null,"TLE_LINE1":"1 47808U 21018X   21328.38530646  .00001214  00000-0  10039-3 0  9994","REV_AT_EPOCH":"4064","TIME_SYSTEM":"UTC","MEAN_MOTION_DOT":"0.00001214","LAUNCH_DATE":"2021-03-11","MEAN_ANOMALY":"274.8828","FILE":"3223022","REF_FRAME":"TEME","BSTAR":"0.00010039000000","INCLINATION":"53.0559","CLASSIFICATION_TYPE":"U","NORAD_CAT_ID":"47808","CENTER_NAME":"EARTH","OBJECT_TYPE":"PAYLOAD","EPHEMERIS_TYPE":"0","APOAPSIS":"548.156","GP_ID":"190397237"}];
